[{"icaoId":"EGSH","receiptTime":"2026-07-03T22:24:12.955Z","obsTime":1783117200,"reportTime":"2026-07-03T22:20:00.000Z","temp":18,"dewp":14,"wdir":200,"wspd":6,"visib":"6+","altim":1025,"qcField":2,"metarType":"METAR","rawOb":"METAR EGSH 032220Z AUTO 20006KT 9999 NCD 18/14 Q1025","lat":52.676,"lon":1.283,"elev":21,"name":"Norwich Intl, EN, GB","cover":"CLR","clouds":[],"fltCat":"VFR"},{"icaoId":"EGCC","receiptTime":"2026-07-03T22:24:34.150Z","obsTime":1783117200,"reportTime":"2026-07-03T22:20:00.000Z","temp":17,"dewp":11,"wdir":250,"wspd":6,"visib":"6+","altim":1026,"qcField":2,"metarType":"METAR","rawOb":"METAR EGCC 032220Z AUTO 25006KT 9999 BKN048 17/11 Q1026","lat":53.354,"lon":-2.275,"elev":78,"name":"Manchester Intl, EN, GB","cover":"BKN","clouds":[{"cover":"BKN","base":4800}],"fltCat":"VFR"},{"icaoId":"EGNT","receiptTime":"2026-07-03T22:24:14.658Z","obsTime":1783117200,"reportTime":"2026-07-03T22:20:00.000Z","temp":15,"dewp":13,"wdir":230,"wspd":4,"visib":"6+","altim":1022,"qcField":0,"metarType":"METAR","rawOb":"METAR EGNT 032220Z 23004KT 170V270 9999 BKN020 15/13 Q1022","lat":55.037,"lon":-1.702,"elev":77,"name":"Newcastle Intl, SC, GB","cover":"BKN","clouds":[{"cover":"BKN","base":2000}],"fltCat":"MVFR"},{"icaoId":"EGPO","receiptTime":"2026-07-03T22:24:14.557Z","obsTime":1783117200,"reportTime":"2026-07-03T22:20:00.000Z","temp":13,"dewp":12,"wdir":190,"wspd":13,"visib":"6+","altim":1018,"qcField":2,"metarType":"METAR","rawOb":"METAR EGPO 032220Z AUTO 19013KT 9999 BKN006/// OVC009/// 13/12 Q1018","lat":58.215,"lon":-6.329,"elev":10,"name":"Stornoway Arpt, SC, GB","cover":"OVC","clouds":[{"cover":"BKN","base":600},{"cover":"OVC","base":900}],"fltCat":"IFR"},{"icaoId":"EGAA","receiptTime":"2026-07-03T22:24:15.825Z","obsTime":1783117200,"reportTime":"2026-07-03T22:20:00.000Z","temp":16,"dewp":15,"wdir":280,"wspd":10,"visib":"6+","altim":1023,"qcField":2,"metarType":"METAR","rawOb":"METAR EGAA 032220Z AUTO 28010KT 250V320 9999 SCT006 OVC009 16/15 Q1023","lat":54.654,"lon":-6.225,"elev":65,"name":"Belfast Intl, NI, GB","cover":"OVC","clouds":[{"cover":"SCT","base":600},{"cover":"OVC","base":900}],"fltCat":"IFR"},{"icaoId":"EGTE","receiptTime":"2026-07-03T22:24:14.855Z","obsTime":1783117200,"reportTime":"2026-07-03T22:20:00.000Z","temp":15,"dewp":12,"wdir":"VRB","wspd":6,"visib":"6+","altim":1030,"qcField":0,"metarType":"METAR","rawOb":"METAR EGTE 032220Z VRB06KT 9999 SCT015 15/12 Q1030","lat":50.737,"lon":-3.406,"elev":30,"name":"Exeter Arpt, EN, GB","cover":"SCT","clouds":[{"cover":"SCT","base":1500}],"fltCat":"VFR"},{"icaoId":"EGPH","receiptTime":"2026-07-03T22:24:14.089Z","obsTime":1783117200,"reportTime":"2026-07-03T22:20:00.000Z","temp":13,"dewp":12,"wdir":"VRB","wspd":1,"visib":3.73,"altim":1021,"qcField":0,"wxString":"-RA -DZ","metarType":"METAR","rawOb":"METAR EGPH 032220Z VRB01KT 6000 -RADZ BKN013 OVC017 13/12 Q1021","lat":55.952,"lon":-3.36,"elev":29,"name":"Edinburgh Arpt, SC, GB","cover":"OVC","clouds":[{"cover":"BKN","base":1300},{"cover":"OVC","base":1700}],"fltCat":"MVFR"},{"icaoId":"EGFF","receiptTime":"2026-07-03T22:24:14.729Z","obsTime":1783117200,"reportTime":"2026-07-03T22:20:00.000Z","temp":16,"dewp":14,"wdir":290,"wspd":9,"visib":"6+","altim":1029,"qcField":2,"metarType":"METAR","rawOb":"METAR EGFF 032220Z AUTO 29009KT 9999 OVC011 16/14 Q1029","lat":51.397,"lon":-3.343,"elev":65,"name":"Cardiff Intl, WL, GB","cover":"OVC","clouds":[{"cover":"OVC","base":1100}],"fltCat":"MVFR"},{"icaoId":"EGLL","receiptTime":"2026-07-03T22:24:14.032Z","obsTime":1783117200,"reportTime":"2026-07-03T22:20:00.000Z","temp":20,"dewp":11,"wdir":250,"wspd":7,"visib":"6+","altim":1027,"qcField":2,"metarType":"METAR","rawOb":"METAR EGLL 032220Z AUTO 25007KT 9999 NCD 20/11 Q1027","lat":51.477,"lon":-0.461,"elev":26,"name":"London/Heathrow Intl, EN, GB","cover":"CLR","clouds":[],"fltCat":"VFR"},{"icaoId":"EGBB","receiptTime":"2026-07-03T22:24:13.971Z","obsTime":1783117200,"reportTime":"2026-07-03T22:20:00.000Z","temp":18,"dewp":10,"wdir":250,"wspd":5,"visib":"6+","altim":1027,"qcField":0,"metarType":"METAR","rawOb":"METAR EGBB 032220Z 25005KT CAVOK 18/10 Q1027","lat":52.46,"lon":-1.758,"elev":91,"name":"Birmingham Intl, EN, GB","cover":"CAVOK","clouds":[],"fltCat":"VFR"},{"icaoId":"EGPH","receiptTime":"2026-07-03T21:54:29.113Z","obsTime":1783115400,"reportTime":"2026-07-03T22:00:00.000Z","temp":13,"dewp":12,"wdir":320,"wspd":1,"visib":3.73,"altim":1021,"qcField":1,"metarType":"METAR","rawOb":"METAR EGPH 032150Z COR 32001KT 6000 FEW008 OVC013 13/12 Q1021","lat":55.952,"lon":-3.36,"elev":29,"name":"Edinburgh Arpt, SC, GB","cover":"OVC","clouds":[{"cover":"FEW","base":800},{"cover":"OVC","base":1300}],"fltCat":"MVFR"},{"icaoId":"EGSH","receiptTime":"2026-07-03T21:54:27.685Z","obsTime":1783115400,"reportTime":"2026-07-03T22:00:00.000Z","temp":18,"dewp":14,"wdir":190,"wspd":7,"visib":"6+","altim":1025,"qcField":0,"metarType":"METAR","rawOb":"METAR EGSH 032150Z 19007KT CAVOK 18/14 Q1025","lat":52.676,"lon":1.283,"elev":21,"name":"Norwich Intl, EN, GB","cover":"CAVOK","clouds":[],"fltCat":"VFR"},{"icaoId":"EGAA","receiptTime":"2026-07-03T21:54:30.954Z","obsTime":1783115400,"reportTime":"2026-07-03T22:00:00.000Z","temp":16,"dewp":15,"wdir":280,"wspd":9,"visib":"6+","altim":1023,"qcField":2,"metarType":"METAR","rawOb":"METAR EGAA 032150Z AUTO 28009KT 9999 BKN006 OVC012 16/15 Q1023","lat":54.654,"lon":-6.225,"elev":65,"name":"Belfast Intl, NI, GB","cover":"OVC","clouds":[{"cover":"BKN","base":600},{"cover":"OVC","base":1200}],"fltCat":"IFR"},{"icaoId":"EGCC","receiptTime":"2026-07-03T21:54:31.168Z","obsTime":1783115400,"reportTime":"2026-07-03T22:00:00.000Z","temp":18,"dewp":11,"wdir":250,"wspd":6,"visib":"6+","altim":1026,"qcField":2,"metarType":"METAR","rawOb":"METAR EGCC 032150Z AUTO 25006KT 9999 BKN042 18/11 Q1026","lat":53.354,"lon":-2.275,"elev":78,"name":"Manchester Intl, EN, GB","cover":"BKN","clouds":[{"cover":"BKN","base":4200}],"fltCat":"VFR"},{"icaoId":"EGFF","receiptTime":"2026-07-03T21:54:27.735Z","obsTime":1783115400,"reportTime":"2026-07-03T22:00:00.000Z","temp":16,"dewp":13,"wdir":280,"wspd":12,"visib":"6+","altim":1029,"qcField":2,"metarType":"METAR","rawOb":"METAR EGFF 032150Z AUTO 28012KT 9999 OVC014 16/13 Q1029","lat":51.397,"lon":-3.343,"elev":65,"name":"Cardiff Intl, WL, GB","cover":"OVC","clouds":[{"cover":"OVC","base":1400}],"fltCat":"MVFR"},{"icaoId":"EGTE","receiptTime":"2026-07-03T21:54:28.079Z","obsTime":1783115400,"reportTime":"2026-07-03T22:00:00.000Z","temp":16,"dewp":12,"wdir":300,"wspd":7,"visib":"6+","altim":1029,"qcField":0,"metarType":"METAR","rawOb":"METAR EGTE 032150Z 30007KT 260V340 9999 SCT015 16/12 Q1029","lat":50.737,"lon":-3.406,"elev":30,"name":"Exeter Arpt, EN, GB","cover":"SCT","clouds":[{"cover":"SCT","base":1500}],"fltCat":"VFR"},{"icaoId":"EGNT","receiptTime":"2026-07-03T21:54:28.761Z","obsTime":1783115400,"reportTime":"2026-07-03T22:00:00.000Z","temp":15,"dewp":13,"wdir":230,"wspd":6,"visib":"6+","altim":1022,"qcField":0,"metarType":"METAR","rawOb":"METAR EGNT 032150Z 23006KT 190V280 9999 BKN021 15/13 Q1022","lat":55.037,"lon":-1.702,"elev":77,"name":"Newcastle Intl, SC, GB","cover":"BKN","clouds":[{"cover":"BKN","base":2100}],"fltCat":"MVFR"},{"icaoId":"EGBB","receiptTime":"2026-07-03T21:54:28.918Z","obsTime":1783115400,"reportTime":"2026-07-03T22:00:00.000Z","temp":19,"dewp":10,"wdir":260,"wspd":6,"visib":"6+","altim":1027,"qcField":0,"metarType":"METAR","rawOb":"METAR EGBB 032150Z 26006KT 230V290 CAVOK 19/10 Q1027","lat":52.46,"lon":-1.758,"elev":91,"name":"Birmingham Intl, EN, GB","cover":"CAVOK","clouds":[],"fltCat":"VFR"},{"icaoId":"EGLL","receiptTime":"2026-07-03T21:54:29.014Z","obsTime":1783115400,"reportTime":"2026-07-03T22:00:00.000Z","temp":21,"dewp":11,"wdir":250,"wspd":11,"visib":"6+","altim":1027,"qcField":2,"metarType":"METAR","rawOb":"METAR EGLL 032150Z AUTO 25011KT 9999 NCD 21/11 Q1027","lat":51.477,"lon":-0.461,"elev":26,"name":"London/Heathrow Intl, EN, GB","cover":"CLR","clouds":[],"fltCat":"VFR"},{"icaoId":"EGPO","receiptTime":"2026-07-03T21:54:29.422Z","obsTime":1783115400,"reportTime":"2026-07-03T22:00:00.000Z","temp":13,"dewp":12,"wdir":190,"wspd":13,"visib":"6+","altim":1018,"qcField":0,"metarType":"METAR","rawOb":"METAR EGPO 032150Z 19013KT 9999 SCT006 BKN014 13/12 Q1018","lat":58.215,"lon":-6.329,"elev":10,"name":"Stornoway Arpt, SC, GB","cover":"BKN","clouds":[{"cover":"SCT","base":600},{"cover":"BKN","base":1400}],"fltCat":"MVFR"},{"icaoId":"EGBB","receiptTime":"2026-07-03T21:24:24.458Z","obsTime":1783113600,"reportTime":"2026-07-03T21:20:00.000Z","temp":20,"dewp":10,"wdir":260,"wspd":7,"visib":"6+","altim":1027,"qcField":0,"metarType":"METAR","rawOb":"METAR EGBB 032120Z 26007KT CAVOK 20/10 Q1027","lat":52.46,"lon":-1.758,"elev":91,"name":"Birmingham Intl, EN, GB","cover":"CAVOK","clouds":[],"fltCat":"VFR"},{"icaoId":"EGCC","receiptTime":"2026-07-03T21:24:24.483Z","obsTime":1783113600,"reportTime":"2026-07-03T21:20:00.000Z","temp":18,"dewp":11,"wdir":260,"wspd":5,"visib":"6+","altim":1026,"qcField":1,"metarType":"METAR","rawOb":"METAR EGCC 032120Z COR 26005KT 9999 BKN043 18/11 Q1026","lat":53.354,"lon":-2.275,"elev":78,"name":"Manchester Intl, EN, GB","cover":"BKN","clouds":[{"cover":"BKN","base":4300}],"fltCat":"VFR"},{"icaoId":"EGPH","receiptTime":"2026-07-03T21:24:24.570Z","obsTime":1783113600,"reportTime":"2026-07-03T21:20:00.000Z","temp":13,"dewp":12,"wdir":"VRB","wspd":2,"visib":4.97,"altim":1021,"qcField":0,"metarType":"METAR","rawOb":"METAR EGPH 032120Z VRB02KT 8000 FEW008 BKN016 OVC021 13/12 Q1021","lat":55.952,"lon":-3.36,"elev":29,"name":"Edinburgh Arpt, SC, GB","cover":"OVC","clouds":[{"cover":"FEW","base":800},{"cover":"BKN","base":1600},{"cover":"OVC","base":2100}],"fltCat":"MVFR"},{"icaoId":"EGFF","receiptTime":"2026-07-03T21:24:25.078Z","obsTime":1783113600,"reportTime":"2026-07-03T21:20:00.000Z","temp":16,"dewp":13,"wdir":270,"wspd":12,"visib":"6+","altim":1029,"qcField":2,"metarType":"METAR","rawOb":"METAR EGFF 032120Z AUTO 27012KT 9999 OVC012 16/13 Q1029","lat":51.397,"lon":-3.343,"elev":65,"name":"Cardiff Intl, WL, GB","cover":"OVC","clouds":[{"cover":"OVC","base":1200}],"fltCat":"MVFR"},{"icaoId":"EGTE","receiptTime":"2026-07-03T21:24:25.193Z","obsTime":1783113600,"reportTime":"2026-07-03T21:20:00.000Z","temp":16,"dewp":13,"wdir":320,"wspd":6,"visib":"6+","altim":1029,"qcField":0,"metarType":"METAR","rawOb":"METAR EGTE 032120Z 32006KT 9999 SCT015 16/13 Q1029","lat":50.737,"lon":-3.406,"elev":30,"name":"Exeter Arpt, EN, GB","cover":"SCT","clouds":[{"cover":"SCT","base":1500}],"fltCat":"VFR"},{"icaoId":"EGNT","receiptTime":"2026-07-03T21:24:24.722Z","obsTime":1783113600,"reportTime":"2026-07-03T21:20:00.000Z","temp":14,"dewp":13,"wdir":0,"wspd":0,"visib":"6+","altim":1022,"qcField":0,"metarType":"METAR","rawOb":"METAR EGNT 032120Z 00000KT 9999 BKN025 14/13 Q1022","lat":55.037,"lon":-1.702,"elev":77,"name":"Newcastle Intl, SC, GB","cover":"BKN","clouds":[{"cover":"BKN","base":2500}],"fltCat":"MVFR"},{"icaoId":"EGAA","receiptTime":"2026-07-03T21:24:24.124Z","obsTime":1783113600,"reportTime":"2026-07-03T21:20:00.000Z","temp":16,"dewp":15,"wdir":280,"wspd":8,"visib":"6+","altim":1023,"qcField":2,"metarType":"METAR","rawOb":"METAR EGAA 032120Z AUTO 28008KT 240V310 9999 SCT007 BKN011 BKN027 16/15 Q1023","lat":54.654,"lon":-6.225,"elev":65,"name":"Belfast Intl, NI, GB","cover":"BKN","clouds":[{"cover":"SCT","base":700},{"cover":"BKN","base":1100},{"cover":"BKN","base":2700}],"fltCat":"MVFR"},{"icaoId":"EGSH","receiptTime":"2026-07-03T21:24:24.909Z","obsTime":1783113600,"reportTime":"2026-07-03T21:20:00.000Z","temp":19,"dewp":14,"wdir":190,"wspd":8,"visib":"6+","altim":1025,"qcField":0,"metarType":"METAR","rawOb":"METAR EGSH 032120Z 19008KT CAVOK 19/14 Q1025","lat":52.676,"lon":1.283,"elev":21,"name":"Norwich Intl, EN, GB","cover":"CAVOK","clouds":[],"fltCat":"VFR"},{"icaoId":"EGLL","receiptTime":"2026-07-03T21:24:24.525Z","obsTime":1783113600,"reportTime":"2026-07-03T21:20:00.000Z","temp":22,"dewp":11,"wdir":250,"wspd":12,"visib":"6+","altim":1027,"qcField":2,"metarType":"METAR","rawOb":"METAR EGLL 032120Z AUTO 25012KT 9999 NCD 22/11 Q1027","lat":51.477,"lon":-0.461,"elev":26,"name":"London/Heathrow Intl, EN, GB","cover":"CLR","clouds":[],"fltCat":"VFR"},{"icaoId":"EGPO","receiptTime":"2026-07-03T21:24:25.021Z","obsTime":1783113600,"reportTime":"2026-07-03T21:20:00.000Z","temp":13,"dewp":12,"wdir":200,"wspd":13,"visib":"6+","altim":1018,"qcField":0,"metarType":"METAR","rawOb":"METAR EGPO 032120Z 20013KT 9999 SCT007 BKN014 13/12 Q1018","lat":58.215,"lon":-6.329,"elev":10,"name":"Stornoway Arpt, SC, GB","cover":"BKN","clouds":[{"cover":"SCT","base":700},{"cover":"BKN","base":1400}],"fltCat":"MVFR"},{"icaoId":"EGCC","receiptTime":"2026-07-03T20:54:10.967Z","obsTime":1783111800,"reportTime":"2026-07-03T21:00:00.000Z","temp":19,"dewp":10,"wdir":240,"wspd":7,"visib":"6+","altim":1026,"qcField":2,"metarType":"METAR","rawOb":"METAR EGCC 032050Z AUTO 24007KT 9999 NCD 19/10 Q1026","lat":53.354,"lon":-2.275,"elev":78,"name":"Manchester Intl, EN, GB","cover":"CLR","clouds":[],"fltCat":"VFR"},{"icaoId":"EGNT","receiptTime":"2026-07-03T20:54:10.254Z","obsTime":1783111800,"reportTime":"2026-07-03T21:00:00.000Z","temp":14,"dewp":13,"wdir":0,"wspd":0,"visib":"6+","altim":1023,"qcField":0,"metarType":"METAR","rawOb":"METAR EGNT 032050Z 00000KT 9999 BKN028 14/13 Q1023","lat":55.037,"lon":-1.702,"elev":77,"name":"Newcastle Intl, SC, GB","cover":"BKN","clouds":[{"cover":"BKN","base":2800}],"fltCat":"MVFR"},{"icaoId":"EGTE","receiptTime":"2026-07-03T20:54:10.868Z","obsTime":1783111800,"reportTime":"2026-07-03T21:00:00.000Z","temp":17,"dewp":13,"wdir":300,"wspd":6,"visib":"6+","altim":1029,"qcField":0,"metarType":"METAR","rawOb":"METAR EGTE 032050Z 30006KT 260V360 9999 FEW030 17/13 Q1029","lat":50.737,"lon":-3.406,"elev":30,"name":"Exeter Arpt, EN, GB","cover":"FEW","clouds":[{"cover":"FEW","base":3000}],"fltCat":"VFR"},{"icaoId":"EGPH","receiptTime":"2026-07-03T20:54:11.151Z","obsTime":1783111800,"reportTime":"2026-07-03T21:00:00.000Z","temp":13,"dewp":12,"wdir":260,"wspd":3,"visib":2.49,"altim":1021,"qcField":0,"wxString":"-RA","metarType":"METAR","rawOb":"METAR EGPH 032050Z 26003KT 190V320 4000 -RA BKN015 BKN022 13/12 Q1021","lat":55.952,"lon":-3.36,"elev":29,"name":"Edinburgh Arpt, SC, GB","cover":"BKN","clouds":[{"cover":"BKN","base":1500},{"cover":"BKN","base":2200}],"fltCat":"IFR"},{"icaoId":"EGLL","receiptTime":"2026-07-03T20:54:11.060Z","obsTime":1783111800,"reportTime":"2026-07-03T21:00:00.000Z","temp":22,"dewp":11,"wdir":250,"wspd":13,"visib":"6+","altim":1027,"qcField":2,"metarType":"METAR","rawOb":"METAR EGLL 032050Z AUTO 25013KT 9999 NCD 22/11 Q1027","lat":51.477,"lon":-0.461,"elev":26,"name":"London/Heathrow Intl, EN, GB","cover":"CLR","clouds":[],"fltCat":"VFR"},{"icaoId":"EGFF","receiptTime":"2026-07-03T20:54:10.591Z","obsTime":1783111800,"reportTime":"2026-07-03T21:00:00.000Z","temp":16,"dewp":13,"wdir":290,"wspd":15,"visib":"6+","altim":1029,"qcField":2,"metarType":"METAR","rawOb":"METAR EGFF 032050Z AUTO 29015KT 9999 OVC013 16/13 Q1029","lat":51.397,"lon":-3.343,"elev":65,"name":"Cardiff Intl, WL, GB","cover":"OVC","clouds":[{"cover":"OVC","base":1300}],"fltCat":"MVFR"},{"icaoId":"EGPO","receiptTime":"2026-07-03T20:54:10.538Z","obsTime":1783111800,"reportTime":"2026-07-03T21:00:00.000Z","temp":13,"dewp":12,"wdir":200,"wspd":13,"visib":"6+","altim":1018,"qcField":0,"metarType":"METAR","rawOb":"METAR EGPO 032050Z 20013KT 9999 SCT007 BKN016 13/12 Q1018","lat":58.215,"lon":-6.329,"elev":10,"name":"Stornoway Arpt, SC, GB","cover":"BKN","clouds":[{"cover":"SCT","base":700},{"cover":"BKN","base":1600}],"fltCat":"MVFR"},{"icaoId":"EGAA","receiptTime":"2026-07-03T20:58:17.065Z","obsTime":1783111800,"reportTime":"2026-07-03T21:00:00.000Z","temp":16,"dewp":15,"wdir":260,"wspd":14,"visib":"6+","altim":1022,"qcField":0,"wxString":"-RA","metarType":"METAR","rawOb":"METAR EGAA 032050Z 26014KT 9999 -RA SCT013 BKN021 16/15 Q1022 REDZ","lat":54.654,"lon":-6.225,"elev":65,"name":"Belfast Intl, NI, GB","cover":"BKN","clouds":[{"cover":"SCT","base":1300},{"cover":"BKN","base":2100}],"fltCat":"MVFR"},{"icaoId":"EGBB","receiptTime":"2026-07-03T20:54:10.925Z","obsTime":1783111800,"reportTime":"2026-07-03T21:00:00.000Z","temp":20,"dewp":9,"wdir":260,"wspd":7,"visib":"6+","altim":1027,"qcField":0,"metarType":"METAR","rawOb":"METAR EGBB 032050Z 26007KT CAVOK 20/09 Q1027","lat":52.46,"lon":-1.758,"elev":91,"name":"Birmingham Intl, EN, GB","cover":"CAVOK","clouds":[],"fltCat":"VFR"},{"icaoId":"EGSH","receiptTime":"2026-07-03T20:54:11.841Z","obsTime":1783111800,"reportTime":"2026-07-03T21:00:00.000Z","temp":19,"dewp":13,"wdir":170,"wspd":9,"visib":"6+","altim":1025,"qcField":0,"metarType":"METAR","rawOb":"METAR EGSH 032050Z 17009KT CAVOK 19/13 Q1025","lat":52.676,"lon":1.283,"elev":21,"name":"Norwich Intl, EN, GB","cover":"CAVOK","clouds":[],"fltCat":"VFR"},{"icaoId":"EGAA","receiptTime":"2026-07-03T20:24:20.077Z","obsTime":1783110000,"reportTime":"2026-07-03T20:20:00.000Z","temp":16,"dewp":15,"wdir":260,"wspd":15,"visib":2.8,"altim":1022,"qcField":0,"wxString":"DZ","metarType":"METAR","rawOb":"METAR EGAA 032020Z 26015KT 4500 DZ SCT010 BKN017 BKN029 16/15 Q1022","lat":54.654,"lon":-6.225,"elev":65,"name":"Belfast Intl, NI, GB","cover":"BKN","clouds":[{"cover":"SCT","base":1000},{"cover":"BKN","base":1700},{"cover":"BKN","base":2900}],"fltCat":"IFR"},{"icaoId":"EGSH","receiptTime":"2026-07-03T20:24:18.191Z","obsTime":1783110000,"reportTime":"2026-07-03T20:20:00.000Z","temp":19,"dewp":13,"wdir":160,"wspd":8,"visib":"6+","altim":1025,"qcField":0,"metarType":"METAR","rawOb":"METAR EGSH 032020Z 16008KT CAVOK 19/13 Q1025","lat":52.676,"lon":1.283,"elev":21,"name":"Norwich Intl, EN, GB","cover":"CAVOK","clouds":[],"fltCat":"VFR"},{"icaoId":"EGBB","receiptTime":"2026-07-03T20:24:20.331Z","obsTime":1783110000,"reportTime":"2026-07-03T20:20:00.000Z","temp":21,"dewp":9,"wdir":260,"wspd":7,"visib":"6+","altim":1026,"qcField":0,"metarType":"METAR","rawOb":"METAR EGBB 032020Z 26007KT 220V290 CAVOK 21/09 Q1026","lat":52.46,"lon":-1.758,"elev":91,"name":"Birmingham Intl, EN, GB","cover":"CAVOK","clouds":[],"fltCat":"VFR"},{"icaoId":"EGPO","receiptTime":"2026-07-03T20:24:16.174Z","obsTime":1783110000,"reportTime":"2026-07-03T20:20:00.000Z","temp":13,"dewp":12,"wdir":210,"wspd":16,"visib":"6+","altim":1018,"qcField":0,"metarType":"METAR","rawOb":"METAR EGPO 032020Z 21016KT 9999 FEW010 SCT015 BKN022 13/12 Q1018","lat":58.215,"lon":-6.329,"elev":10,"name":"Stornoway Arpt, SC, GB","cover":"BKN","clouds":[{"cover":"FEW","base":1000},{"cover":"SCT","base":1500},{"cover":"BKN","base":2200}],"fltCat":"MVFR"},{"icaoId":"EGPH","receiptTime":"2026-07-03T20:24:20.444Z","obsTime":1783110000,"reportTime":"2026-07-03T20:20:00.000Z","temp":13,"dewp":13,"wdir":"VRB","wspd":1,"visib":"6+","altim":1021,"qcField":0,"wxString":"-RA","metarType":"METAR","rawOb":"METAR EGPH 032020Z VRB01KT 9999 -RA SCT017 BKN023 13/13 Q1021","lat":55.952,"lon":-3.36,"elev":29,"name":"Edinburgh Arpt, SC, GB","cover":"BKN","clouds":[{"cover":"SCT","base":1700},{"cover":"BKN","base":2300}],"fltCat":"MVFR"},{"icaoId":"EGLL","receiptTime":"2026-07-03T20:24:20.397Z","obsTime":1783110000,"reportTime":"2026-07-03T20:20:00.000Z","temp":23,"dewp":11,"wdir":250,"wspd":13,"visib":"6+","altim":1027,"qcField":2,"metarType":"METAR","rawOb":"METAR EGLL 032020Z AUTO 25013KT 9999 NCD 23/11 Q1027","lat":51.477,"lon":-0.461,"elev":26,"name":"London/Heathrow Intl, EN, GB","cover":"CLR","clouds":[],"fltCat":"VFR"},{"icaoId":"EGNT","receiptTime":"2026-07-03T20:24:20.260Z","obsTime":1783110000,"reportTime":"2026-07-03T20:20:00.000Z","temp":15,"dewp":13,"wdir":200,"wspd":1,"visib":"6+","altim":1023,"qcField":0,"metarType":"METAR","rawOb":"METAR EGNT 032020Z 20001KT 9999 SCT032 15/13 Q1023","lat":55.037,"lon":-1.702,"elev":77,"name":"Newcastle Intl, SC, GB","cover":"SCT","clouds":[{"cover":"SCT","base":3200}],"fltCat":"VFR"},{"icaoId":"EGFF","receiptTime":"2026-07-03T20:24:20.813Z","obsTime":1783110000,"reportTime":"2026-07-03T20:20:00.000Z","temp":16,"dewp":13,"wdir":280,"wspd":14,"visib":"6+","altim":1029,"qcField":2,"metarType":"METAR","rawOb":"METAR EGFF 032020Z AUTO 28014KT 9999 OVC016 16/13 Q1029","lat":51.397,"lon":-3.343,"elev":65,"name":"Cardiff Intl, WL, GB","cover":"OVC","clouds":[{"cover":"OVC","base":1600}],"fltCat":"MVFR"},{"icaoId":"EGCC","receiptTime":"2026-07-03T20:24:20.353Z","obsTime":1783110000,"reportTime":"2026-07-03T20:20:00.000Z","temp":19,"dewp":10,"wdir":250,"wspd":9,"visib":"6+","altim":1025,"qcField":2,"metarType":"METAR","rawOb":"METAR EGCC 032020Z AUTO 25009KT 9999 NCD 19/10 Q1025","lat":53.354,"lon":-2.275,"elev":78,"name":"Manchester Intl, EN, GB","cover":"CLR","clouds":[],"fltCat":"VFR"},{"icaoId":"EGTE","receiptTime":"2026-07-03T20:24:20.924Z","obsTime":1783110000,"reportTime":"2026-07-03T20:20:00.000Z","temp":18,"dewp":13,"wdir":310,"wspd":7,"visib":"6+","altim":1029,"qcField":0,"metarType":"METAR","rawOb":"METAR EGTE 032020Z 31007KT 280V360 9999 FEW030 18/13 Q1029","lat":50.737,"lon":-3.406,"elev":30,"name":"Exeter Arpt, EN, GB","cover":"FEW","clouds":[{"cover":"FEW","base":3000}],"fltCat":"VFR"},{"icaoId":"EGLL","receiptTime":"2026-07-03T19:54:14.409Z","obsTime":1783108200,"reportTime":"2026-07-03T20:00:00.000Z","temp":23,"dewp":11,"wdir":240,"wspd":14,"visib":"6+","altim":1027,"qcField":2,"metarType":"METAR","rawOb":"METAR EGLL 031950Z AUTO 24014KT 9999 NCD 23/11 Q1027","lat":51.477,"lon":-0.461,"elev":26,"name":"London/Heathrow Intl, EN, GB","cover":"CLR","clouds":[],"fltCat":"VFR"},{"icaoId":"EGPH","receiptTime":"2026-07-03T19:54:14.523Z","obsTime":1783108200,"reportTime":"2026-07-03T20:00:00.000Z","temp":13,"dewp":12,"wdir":"VRB","wspd":1,"visib":"6+","altim":1022,"qcField":0,"metarType":"METAR","rawOb":"METAR EGPH 031950Z VRB01KT 9999 FEW028 13/12 Q1022","lat":55.952,"lon":-3.36,"elev":29,"name":"Edinburgh Arpt, SC, GB","cover":"FEW","clouds":[{"cover":"FEW","base":2800}],"fltCat":"VFR"},{"icaoId":"EGAA","receiptTime":"2026-07-03T19:54:16.431Z","obsTime":1783108200,"reportTime":"2026-07-03T20:00:00.000Z","temp":16,"dewp":15,"wdir":270,"wspd":17,"visib":2.42,"altim":1022,"qcField":0,"wxString":"DZ","metarType":"METAR","rawOb":"METAR EGAA 031950Z 27017KT 3900 DZ BKN012 OVC020 16/15 Q1022","lat":54.654,"lon":-6.225,"elev":65,"name":"Belfast Intl, NI, GB","cover":"OVC","clouds":[{"cover":"BKN","base":1200},{"cover":"OVC","base":2000}],"fltCat":"IFR"},{"icaoId":"EGFF","receiptTime":"2026-07-03T19:54:17.028Z","obsTime":1783108200,"reportTime":"2026-07-03T20:00:00.000Z","temp":16,"dewp":13,"wdir":280,"wspd":14,"visib":"6+","altim":1029,"qcField":2,"metarType":"METAR","rawOb":"METAR EGFF 031950Z AUTO 28014KT 9999 BKN015 16/13 Q1029","lat":51.397,"lon":-3.343,"elev":65,"name":"Cardiff Intl, WL, GB","cover":"BKN","clouds":[{"cover":"BKN","base":1500}],"fltCat":"MVFR"},{"icaoId":"EGTE","receiptTime":"2026-07-03T19:54:17.289Z","obsTime":1783108200,"reportTime":"2026-07-03T20:00:00.000Z","temp":19,"dewp":14,"wdir":320,"wspd":7,"visib":"6+","altim":1029,"qcField":0,"metarType":"METAR","rawOb":"METAR EGTE 031950Z 32007KT 280V350 CAVOK 19/14 Q1029","lat":50.737,"lon":-3.406,"elev":30,"name":"Exeter Arpt, EN, GB","cover":"CAVOK","clouds":[],"fltCat":"VFR"},{"icaoId":"EGNT","receiptTime":"2026-07-03T19:54:16.310Z","obsTime":1783108200,"reportTime":"2026-07-03T20:00:00.000Z","temp":15,"dewp":12,"wdir":290,"wspd":1,"visib":"6+","altim":1023,"qcField":0,"metarType":"METAR","rawOb":"METAR EGNT 031950Z 29001KT 9999 FEW043 15/12 Q1023","lat":55.037,"lon":-1.702,"elev":77,"name":"Newcastle Intl, SC, GB","cover":"FEW","clouds":[{"cover":"FEW","base":4300}],"fltCat":"VFR"},{"icaoId":"EGPO","receiptTime":"2026-07-03T19:54:16.754Z","obsTime":1783108200,"reportTime":"2026-07-03T20:00:00.000Z","temp":14,"dewp":12,"wdir":210,"wspd":15,"visib":"6+","altim":1018,"qcField":0,"metarType":"METAR","rawOb":"METAR EGPO 031950Z 21015KT 9999 BKN019 14/12 Q1018","lat":58.215,"lon":-6.329,"elev":10,"name":"Stornoway Arpt, SC, GB","cover":"BKN","clouds":[{"cover":"BKN","base":1900}],"fltCat":"MVFR"},{"icaoId":"EGBB","receiptTime":"2026-07-03T19:54:14.258Z","obsTime":1783108200,"reportTime":"2026-07-03T20:00:00.000Z","temp":22,"dewp":9,"wdir":250,"wspd":6,"visib":"6+","altim":1026,"qcField":0,"metarType":"METAR","rawOb":"METAR EGBB 031950Z 25006KT 180V270 CAVOK 22/09 Q1026","lat":52.46,"lon":-1.758,"elev":91,"name":"Birmingham Intl, EN, GB","cover":"CAVOK","clouds":[],"fltCat":"VFR"},{"icaoId":"EGSH","receiptTime":"2026-07-03T19:54:16.165Z","obsTime":1783108200,"reportTime":"2026-07-03T20:00:00.000Z","temp":20,"dewp":13,"wdir":150,"wspd":7,"visib":"6+","altim":1025,"qcField":0,"metarType":"METAR","rawOb":"METAR EGSH 031950Z 15007KT CAVOK 20/13 Q1025","lat":52.676,"lon":1.283,"elev":21,"name":"Norwich Intl, EN, GB","cover":"CAVOK","clouds":[],"fltCat":"VFR"},{"icaoId":"EGCC","receiptTime":"2026-07-03T19:54:14.307Z","obsTime":1783108200,"reportTime":"2026-07-03T20:00:00.000Z","temp":20,"dewp":9,"wdir":250,"wspd":10,"visib":"6+","altim":1025,"qcField":2,"metarType":"METAR","rawOb":"METAR EGCC 031950Z AUTO 25010KT 9999 NCD 20/09 Q1025","lat":53.354,"lon":-2.275,"elev":78,"name":"Manchester Intl, EN, GB","cover":"CLR","clouds":[],"fltCat":"VFR"}]